ISS (ZARYA)             
1 25544U 98067A   25175.54783733  .00007984  00000+0  14659-3 0  9995
2 25544  51.6362 270.5968 0002158 283.7617  76.3131 15.50219065516302
STARLINK-3090           
1 49132U 21082C   25175.54479806 -.00000407  00000+0 -26279-4 0  9997
2 49132  69.9980 225.2007 0003458 269.2787  90.7975 14.98330145207319